NORAD_CAT_ID,OBJECT_NAME,OBJECT_TYPE,EPOCH,MEAN_MOTION,ECCENTRICITY,INCLINATION,RA_OF_ASC_NODE,ARG_OF_PERICENTER,MEAN_ANOMALY,BSTAR,MEAN_MOTION_DOT,MEAN_MOTION_DDOT,TLE_LINE0,TLE_LINE1,TLE_LINE2,SEMIMAJOR_AXIS,PERIOD,APOGEE,PERIGEE,DECAYED
51774.0,STARLINK-3629,PAYLOAD,2022-03-23 14:00:01,15.73200277,9.85e-05,53.2168,15.2341,78.214,13.8355,0.00044868,0.00062822,0.0,0 STARLINK-3629,1 51774U 22017G   22082.58334491  .00062822  00000-0  44868-3 0  9990,2 51774  53.2168  15.2341 0000985  78.2140  13.8355 15.73200277  3700,6727.894,91.533,350.422,349.097,0.0
51774.0,STARLINK-3629,PAYLOAD,2022-03-23 22:00:00,15.73280688,0.0001021,53.2171,13.5848,81.2673,99.7254,-0.00020212,-0.00028986,0.0,0 STARLINK-3629,1 51774U 22017G   22082.91667824 -.00028986  00000-0 -20212-3 0  9998,2 51774  53.2171  13.5848 0001021  81.2673  99.7254 15.73280688  5374,6727.665,91.528,350.217,348.843,0.0
51774.0,STARLINK-3629,PAYLOAD,2022-03-24 14:00:01,15.731859900000002,9.91e-05,53.2169,10.2851,77.6039,281.3904,0.00041449,0.00057917,0.0,0 STARLINK-3629,1 51774U 22017G   22083.58334491  .00057917  00000-0  41449-3 0  9992,2 51774  53.2169  10.2851 0000991  77.6039 281.3904 15.73185990  3682,6727.935,91.534,350.467,349.1330000000001,0.0
51774.0,STARLINK-3629,PAYLOAD,2022-03-24 22:00:00,15.73223732,0.0001183,53.2168,8.6362,78.8962,9.0254,-0.00043158,-0.00060813,0.0,0 STARLINK-3629,1 51774U 22017G   22083.91667824 -.00060813  00000-0 -43158-3 0  9998,2 51774  53.2168   8.6362 0001183  78.8962   9.0254 15.73223732  3704,6727.828,91.532,350.48800000000006,348.897,0.0
51774.0,STARLINK-3629,PAYLOAD,2022-03-25 00:00:02,15.73184772,0.0001249,53.2167,8.2243,74.6906,125.5429,3.4948000000000005e-05,4.284e-05,0.0,0 STARLINK-3629,1 51774U 22017G   22084.00002315  .00004284  00000-0  34948-4 0  9993,2 51774  53.2167   8.2243 0001249  74.6906 125.5429 15.73184772  5544,6727.939,91.534,350.644,348.963,0.0
51774.0,STARLINK-3629,PAYLOAD,2022-03-25 14:00:01,15.73189229,0.0001041,53.2164,5.3365,82.9039,182.8928,7.5437e-05,9.975e-05,0.0,0 STARLINK-3629,1 51774U 22017G   22084.58334491  .00009975  00000-0  75437-4 0  9999,2 51774  53.2164   5.3365 0001041  82.9039 182.8928 15.73189229  3699,6727.926,91.534,350.491,349.091,0.0
51774.0,STARLINK-3629,PAYLOAD,2022-03-25 20:00:01,15.73204739,0.0001039,53.2167,4.0994,86.6445,155.8323,0.0001964,0.00027038,0.0,0 STARLINK-3629,1 51774U 22017G   22084.83334491  .00027038  00000-0  19640-3 0  9990,2 51774  53.2167   4.0994 0001039  86.6445 155.8323 15.73204739  5678,6727.882,91.533,350.446,349.048,0.0
51774.0,STARLINK-3629,PAYLOAD,2022-03-25 22:00:01,15.73238728,0.0001072,53.2167,3.6875,80.5804,274.1886,-0.00033035,-0.000468,0.0,0 STARLINK-3629,1 51774U 22017G   22084.91668981 -.00046800  00000-0 -33035-3 0  9997,2 51774  53.2167   3.6875 0001072  80.5804 274.1886 15.73238728  3706,6727.785,91.531,350.371,348.92900000000014,0.0
51774.0,STARLINK-3629,PAYLOAD,2022-03-26 14:00:01,15.73213882,0.0001082,53.2166,0.3878,84.7803,87.8131,3.3295e-06,-1.52e-06,0.0,0 STARLINK-3629,1 51774U 22017G   22085.58334491 -.00000152  00000-0  33295-5 0  9996,2 51774  53.2166   0.3878 0001082  84.7803  87.8131 15.73213882  5795,6727.856,91.532,350.449,348.99300000000005,0.0
51774.0,STARLINK-3629,PAYLOAD,2022-03-26 22:00:00,15.73187881,0.000106,53.2166,358.7394,79.8017,181.7211,3.8537e-05,4.789e-05,0.0,0 STARLINK-3629,1 51774U 22017G   22085.91667824  .00004789  00000-0  38537-4 0  9994,2 51774  53.2166 358.7394 0001060  79.8017 181.7211 15.73187881  5844,6727.93,91.534,350.5080000000001,349.082,0.0
51774.0,STARLINK-3629,PAYLOAD,2022-03-27 06:00:00,15.73180015,0.0001218,53.217,357.077,86.0137,264.2638,0.00031324,0.00043531,0.0,0 STARLINK-3629,1 51774U 22017G   22086.25001157  .00043531  00000-0  31324-3 0  9997,2 51774  53.2170 357.0770 0001218  86.0137 264.2638 15.73180015  5906,6727.9519999999975,91.534,350.63699999999994,348.99800000000016,0.0
51774.0,STARLINK-3629,PAYLOAD,2022-03-27 14:00:01,15.7321795,0.0001262,53.2161,355.4392,89.6085,349.8268,-3.5232e-05,-5.565e-05,0.0,0 STARLINK-3629,1 51774U 22017G   22086.58334491 -.00005565  00000-0 -35232-4 0  9993,2 51774  53.2161 355.4392 0001262  89.6085 349.8268 15.73217950  5951,6727.844,91.532,350.55800000000005,348.86,0.0
51774.0,STARLINK-3629,PAYLOAD,2022-03-27 22:00:01,15.73189281,0.0001351999999999,53.2165,353.7907,85.32700000000001,83.1171,3.5483e-05,4.36e-05,0.0,0 STARLINK-3629,1 51774U 22017G   22086.91668981  .00004360  00000-0  35483-4 0  9992,2 51774  53.2165 353.7907 0001352  85.3270  83.1171 15.73189281  3692,6727.926,91.534,350.7,348.881,0.0
51774.0,STARLINK-3629,PAYLOAD,2022-03-28 14:00:01,15.73202346,0.000113,53.2164,350.4907,88.8991,257.4302,0.00015135,0.00020675,0.0,0 STARLINK-3629,1 51774U 22017G   22087.58335648  .00020675  00000-0  15135-3 0  9995,2 51774  53.2164 350.4907 0001130  88.8991 257.4302 15.73202346  3709,6727.888000000001,91.533,350.514,348.99300000000005,0.0
51774.0,STARLINK-3629,PAYLOAD,2022-03-28 22:00:00,15.73235005,0.0001236,53.2163,348.8427,84.801,350.4125,-0.00060129,-0.00084291,0.0,0 STARLINK-3629,1 51774U 22017G   22087.91667824 -.00084291  00000-0 -60129-3 0  9995,2 51774  53.2163 348.8427 0001236  84.8010 350.4125 15.73235005  6169,6727.795,91.531,350.492,348.829,0.0
51774.0,STARLINK-3629,PAYLOAD,2022-03-29 14:00:01,15.73105979,0.0001281,53.2157,345.5424,94.5184,158.5245,0.00076464,0.00107641,0.0,0 STARLINK-3629,1 51774U 22017G   22088.58334491  .00107641  00000-0  76464-3 0  9992,2 51774  53.2157 345.5424 0001281  94.5184 158.5245 15.73105979  6260,6728.163000000001,91.539,350.89,349.166,0.0
51774.0,STARLINK-3629,PAYLOAD,2022-03-29 22:00:00,15.73193208,0.0001281,53.216,343.8946,89.363,252.5425,0.00022479,0.00031035,0.0,0 STARLINK-3629,1 51774U 22017G   22088.91667824  .00031035  00000-0  22479-3 0  9998,2 51774  53.2160 343.8946 0001281  89.3630 252.5425 15.73193208  3705,6727.915,91.534,350.641,348.918,0.0
51774.0,STARLINK-3629,PAYLOAD,2022-03-30 00:00:00,15.73190674,0.000126,53.2159,343.4828,85.90799999999999,8.2268,0.00034261,0.00047717,0.0,0 STARLINK-3629,1 51774U 22017G   22089.00001157  .00047717  00000-0  34261-3 0  9996,2 51774  53.2159 343.4828 0001260  85.9080   8.2268 15.73190674  6333,6727.922,91.534,350.634,348.939,0.0
51774.0,STARLINK-3629,PAYLOAD,2022-03-30 12:00:00,15.73190938,9.92e-05,53.2161,341.0069,94.9058,312.6674,0.00014082,0.00019181,0.0,0 STARLINK-3629,1 51774U 22017G   22089.50001157  .00019181  00000-0  14082-3 0  9994,2 51774  53.2161 341.0069 0000992  94.9058 312.6674 15.73190938  6418,6727.920999999999,91.534,350.45300000000015,349.119,0.0
51774.0,STARLINK-3629,PAYLOAD,2022-03-30 14:00:01,15.73199487,9.9e-05,53.2158,340.5942,96.0369,63.8337,6.297e-05,8.226e-05,0.0,0 STARLINK-3629,1 51774U 22017G   22089.58335648  .00008226  00000-0  62970-4 0  9995,2 51774  53.2158 340.5942 0000990  96.0369  63.8337 15.73199487  3667,6727.897,91.533,350.42800000000005,349.096,0.0
51774.0,STARLINK-3629,PAYLOAD,2022-03-30 22:00:00,15.73193758,0.0001069,53.2156,338.9465,87.4989,161.2415,0.00014054,0.00019144,0.0,0 STARLINK-3629,1 51774U 22017G   22089.91667824  .00019144  00000-0  14054-3 0  9996,2 51774  53.2156 338.9465 0001069  87.4989 161.2415 15.73193758  3728,6727.913000000001,91.534,350.497,349.059,0.0
51774.0,STARLINK-3629,PAYLOAD,2022-03-31 06:00:00,15.73232177,9.47e-05,53.2148,337.2972,83.7581,253.9061,-0.00066112,-0.00092513,0.0,0 STARLINK-3629,1 51774U 22017G   22090.25001157 -.00092513  00000-0 -66112-3 0  9991,2 51774  53.2148 337.2972 0000947  83.7581 253.9061 15.73232177  6532,6727.803000000001,91.531,350.306,349.031,0.0
51774.0,STARLINK-3629,PAYLOAD,2022-03-31 14:00:01,15.73120876,9.86e-05,53.215,335.6454,102.1785,324.4262,0.00076296,0.00107469,0.0,0 STARLINK-3629,1 51774U 22017G   22090.58334491  .00107469  00000-0  76296-3 0  9996,2 51774  53.2150 335.6454 0000986 102.1785 324.4262 15.73120876  3690,6728.121,91.538,350.649,349.32199999999995,0.0
51774.0,STARLINK-3629,PAYLOAD,2022-03-31 22:00:00,15.73208689,0.0001051,53.2151,333.9985,90.3425,65.1596,0.00036524,0.00050969,0.0,0 STARLINK-3629,1 51774U 22017G   22090.91667824  .00050969  00000-0  36524-3 0  9994,2 51774  53.2151 333.9985 0001051  90.3425  65.1596 15.73208689  6639,6727.87,91.533,350.4430000000001,349.028,0.0
51774.0,STARLINK-3629,PAYLOAD,2022-04-01 08:00:01,15.73322219,9.38e-05,53.215,331.9355,92.2444,264.5014,-0.00064499,-0.00090639,0.0,0 STARLINK-3629,1 51774U 22017G   22091.33334491 -.00090639  00000-0 -64499-3 0  9994,2 51774  53.2150 331.9355 0000938  92.2444 264.5014 15.73322219  6706,6727.547,91.526,350.043,348.781,0.0
51774.0,STARLINK-3629,PAYLOAD,2022-04-01 14:00:01,15.7324544,0.0001026,53.2149,330.6969,100.6619,232.8515,-0.0002139,-0.00030588,0.0,0 STARLINK-3629,1 51774U 22017G   22091.58334491 -.00030588  00000-0 -21390-3 0  9991,2 51774  53.2149 330.6969 0001026 100.6619 232.8515 15.73245440  3709,6727.766,91.531,350.321,348.94,0.0
51774.0,STARLINK-3629,PAYLOAD,2022-04-01 22:00:00,15.73235766,0.0001016,53.2146,329.0492,88.3721,334.121,-0.0007587999999999,-0.0010594,0.0,0 STARLINK-3629,1 51774U 22017G   22091.91667824 -.00105940  00000-0 -75880-3 0  9995,2 51774  53.2146 329.0492 0001016  88.3721 334.1210 15.73235766  3678,6727.793000000002,91.531,350.342,348.975,0.0
51774.0,STARLINK-3629,PAYLOAD,2022-04-02 14:00:01,15.73157509,0.0001098,53.214,325.748,104.7595,135.6264,0.00058383,0.00081969,0.0,0 STARLINK-3629,1 51774U 22017G   22092.58335648  .00081969  00000-0  58383-3 0  9996,2 51774  53.2140 325.7480 0001098 104.7595 135.6264 15.73157509  6892,6728.016,91.536,350.62,349.14300000000014,0.0
51774.0,STARLINK-3629,PAYLOAD,2022-04-02 22:00:01,15.73215508,0.0001131,53.2141,324.1004,93.2045,236.097,-0.00065212,-0.00091213,0.0,0 STARLINK-3629,1 51774U 22017G   22092.91668981 -.00091213  00000-0 -65212-3 0  9996,2 51774  53.2141 324.1004 0001131  93.2045 236.0970 15.73215508  6959,6727.851,91.532,350.477,348.955,0.0
